SL-14 R/B               
1 16792U 86046B   25327.11260950  .00000469  00000+0  51413-4 0  9998
2 16792  82.4821 180.8494 0022154 217.4517 142.5157 14.85455874110588
SL-14 R/B               
1 16882U 86055B   25327.25759159  .00000602  00000+0  66762-4 0  9999
2 16882  82.5220 226.6764 0018195 328.7759 153.2690 14.85501985103561
AJISAI (EGS)            
1 16908U 86061A   25327.47320903 -.00000090  00000+0  54763-4 0  9990
2 16908  50.0105  59.9590 0011226  17.4892  69.1370 12.44514115454778
COSMOS 1812             
1 17295U 87003A   25327.39441135  .00083409  00000+0  65198-3 0  9996
2 17295  82.4874 312.8892 0006344 114.4830 245.7095 15.71324103127616
SL-14 R/B               
1 17567U 87024B   25327.11733686  .00000501  00000+0  54455-4 0  9993
2 17567  82.5290 192.8863 0016772 252.6360 107.3022 14.85996460 72307
COSMOS 1833             
1 17589U 87027A   25327.10860672 -.00000087  00000+0 -21009-4 0  9995
2 17589  70.9129 190.0453 0021717 359.2896   0.8190 14.13018084995250
SL-16 R/B               
1 17590U 87027B   25327.46210994  .00000118  00000+0  82136-4 0  9993
2 17590  71.0000 140.3389 0007262 279.5199  80.5104 14.17147495   291
SL-14 R/B               
1 17912U 87038B   25327.25970149  .00000551  00000+0  61167-4 0  9997
2 17912  82.5033  37.0463 0020044 152.5932 207.6346 14.85234432 63433
COSMOS 1844             
1 17973U 87041A   25327.25653402  .00000048  00000+0  49987-4 0  9995
2 17973  70.8996 258.6624 0031001 187.1936 172.8745 14.14527882988530
SL-14 R/B               
1 18153U 87055B   25327.45709632  .00000588  00000+0  65104-4 0  9998
2 18153  82.4988  89.1591 0020854   9.0052 351.1534 14.85490967 54168
COSMOS 1867             
1 18187U 87060A   25327.11123069 -.00000003  00000+0  36547-4 0  9990
2 18187  65.0101 245.1686 0013628 269.1499  90.8024 14.31481623  4686
COSMOS 1892             
1 18421U 87088A   25327.05800373  .00617164  19844-3  67059-3 0  9996
2 18421  82.4651  65.9084 0005682 269.9230  90.1402 16.09875009 88162
