CCSDS_OMM_VERS = 2.0
CREATION_DATE  = 
ORIGINATOR     = 

OBJECT_NAME    = SL-14 R/B
OBJECT_ID      = 1986-046B
CENTER_NAME    = EARTH
REF_FRAME      = TEME
TIME_SYSTEM    = UTC
MEAN_ELEMENT_THEORY = SGP/SGP4

EPOCH          = 2025-11-23T02:42:09.460800
MEAN_MOTION    = 14.85455874
ECCENTRICITY   = .0022154
INCLINATION    = 82.4821
RA_OF_ASC_NODE = 180.8494
ARG_OF_PERICENTER = 217.4517
MEAN_ANOMALY   = 142.5157

EPHEMERIS_TYPE = 0
CLASSIFICATION_TYPE = U
NORAD_CAT_ID   = 16792
ELEMENT_SET_NO = 999
REV_AT_EPOCH   = 11058
BSTAR          = .51413E-4
MEAN_MOTION_DOT = .469E-5
MEAN_MOTION_DDOT = 0

CCSDS_OMM_VERS = 2.0
CREATION_DATE  = 
ORIGINATOR     = 

OBJECT_NAME    = SL-14 R/B
OBJECT_ID      = 1986-055B
CENTER_NAME    = EARTH
REF_FRAME      = TEME
TIME_SYSTEM    = UTC
MEAN_ELEMENT_THEORY = SGP/SGP4

EPOCH          = 2025-11-23T06:10:55.913376
MEAN_MOTION    = 14.85501985
ECCENTRICITY   = .0018195
INCLINATION    = 82.5220
RA_OF_ASC_NODE = 226.6764
ARG_OF_PERICENTER = 328.7759
MEAN_ANOMALY   = 153.2690

EPHEMERIS_TYPE = 0
CLASSIFICATION_TYPE = U
NORAD_CAT_ID   = 16882
ELEMENT_SET_NO = 999
REV_AT_EPOCH   = 10356
BSTAR          = .66762E-4
MEAN_MOTION_DOT = .602E-5
MEAN_MOTION_DDOT = 0

CCSDS_OMM_VERS = 2.0
CREATION_DATE  = 
ORIGINATOR     = 

OBJECT_NAME    = AJISAI (EGS)
OBJECT_ID      = 1986-061A
CENTER_NAME    = EARTH
REF_FRAME      = TEME
TIME_SYSTEM    = UTC
MEAN_ELEMENT_THEORY = SGP/SGP4

EPOCH          = 2025-11-23T11:21:25.260192
MEAN_MOTION    = 12.44514115
ECCENTRICITY   = .0011226
INCLINATION    = 50.0105
RA_OF_ASC_NODE = 59.9590
ARG_OF_PERICENTER = 17.4892
MEAN_ANOMALY   = 69.1370

EPHEMERIS_TYPE = 0
CLASSIFICATION_TYPE = U
NORAD_CAT_ID   = 16908
ELEMENT_SET_NO = 999
REV_AT_EPOCH   = 45477
BSTAR          = .54763E-4
MEAN_MOTION_DOT = -.9E-6
MEAN_MOTION_DDOT = 0

CCSDS_OMM_VERS = 2.0
CREATION_DATE  = 
ORIGINATOR     = 

OBJECT_NAME    = COSMOS 1812
OBJECT_ID      = 1987-003A
CENTER_NAME    = EARTH
REF_FRAME      = TEME
TIME_SYSTEM    = UTC
MEAN_ELEMENT_THEORY = SGP/SGP4

EPOCH          = 2025-11-23T09:27:57.140640
MEAN_MOTION    = 15.71324103
ECCENTRICITY   = .0006344
INCLINATION    = 82.4874
RA_OF_ASC_NODE = 312.8892
ARG_OF_PERICENTER = 114.4830
MEAN_ANOMALY   = 245.7095

EPHEMERIS_TYPE = 0
CLASSIFICATION_TYPE = U
NORAD_CAT_ID   = 17295
ELEMENT_SET_NO = 999
REV_AT_EPOCH   = 12761
BSTAR          = .65198E-3
MEAN_MOTION_DOT = .83409E-3
MEAN_MOTION_DDOT = 0

CCSDS_OMM_VERS = 2.0
CREATION_DATE  = 
ORIGINATOR     = 

OBJECT_NAME    = SL-14 R/B
OBJECT_ID      = 1987-024B
CENTER_NAME    = EARTH
REF_FRAME      = TEME
TIME_SYSTEM    = UTC
MEAN_ELEMENT_THEORY = SGP/SGP4

EPOCH          = 2025-11-23T02:48:57.904704
MEAN_MOTION    = 14.85996460
ECCENTRICITY   = .0016772
INCLINATION    = 82.5290
RA_OF_ASC_NODE = 192.8863
ARG_OF_PERICENTER = 252.6360
MEAN_ANOMALY   = 107.3022

EPHEMERIS_TYPE = 0
CLASSIFICATION_TYPE = U
NORAD_CAT_ID   = 17567
ELEMENT_SET_NO = 999
REV_AT_EPOCH   = 7230
BSTAR          = .54455E-4
MEAN_MOTION_DOT = .501E-5
MEAN_MOTION_DDOT = 0

CCSDS_OMM_VERS = 2.0
CREATION_DATE  = 
ORIGINATOR     = 

OBJECT_NAME    = COSMOS 1833
OBJECT_ID      = 1987-027A
CENTER_NAME    = EARTH
REF_FRAME      = TEME
TIME_SYSTEM    = UTC
MEAN_ELEMENT_THEORY = SGP/SGP4

EPOCH          = 2025-11-23T02:36:23.620608
MEAN_MOTION    = 14.13018084
ECCENTRICITY   = .0021717
INCLINATION    = 70.9129
RA_OF_ASC_NODE = 190.0453
ARG_OF_PERICENTER = 359.2896
MEAN_ANOMALY   = 0.8190

EPHEMERIS_TYPE = 0
CLASSIFICATION_TYPE = U
NORAD_CAT_ID   = 17589
ELEMENT_SET_NO = 999
REV_AT_EPOCH   = 99525
BSTAR          = -.21009E-4
MEAN_MOTION_DOT = -.87E-6
MEAN_MOTION_DDOT = 0

CCSDS_OMM_VERS = 2.0
CREATION_DATE  = 
ORIGINATOR     = 

OBJECT_NAME    = SL-16 R/B
OBJECT_ID      = 1987-027B
CENTER_NAME    = EARTH
REF_FRAME      = TEME
TIME_SYSTEM    = UTC
MEAN_ELEMENT_THEORY = SGP/SGP4

EPOCH          = 2025-11-23T11:05:26.298816
MEAN_MOTION    = 14.17147495
ECCENTRICITY   = .0007262
INCLINATION    = 71.0000
RA_OF_ASC_NODE = 140.3389
ARG_OF_PERICENTER = 279.5199
MEAN_ANOMALY   = 80.5104

EPHEMERIS_TYPE = 0
CLASSIFICATION_TYPE = U
NORAD_CAT_ID   = 17590
ELEMENT_SET_NO = 999
REV_AT_EPOCH   = 29
BSTAR          = .82136E-4
MEAN_MOTION_DOT = .118E-5
MEAN_MOTION_DDOT = 0

CCSDS_OMM_VERS = 2.0
CREATION_DATE  = 
ORIGINATOR     = 

OBJECT_NAME    = SL-14 R/B
OBJECT_ID      = 1987-038B
CENTER_NAME    = EARTH
REF_FRAME      = TEME
TIME_SYSTEM    = UTC
MEAN_ELEMENT_THEORY = SGP/SGP4

EPOCH          = 2025-11-23T06:13:58.208736
MEAN_MOTION    = 14.85234432
ECCENTRICITY   = .0020044
INCLINATION    = 82.5033
RA_OF_ASC_NODE = 37.0463
ARG_OF_PERICENTER = 152.5932
MEAN_ANOMALY   = 207.6346

EPHEMERIS_TYPE = 0
CLASSIFICATION_TYPE = U
NORAD_CAT_ID   = 17912
ELEMENT_SET_NO = 999
REV_AT_EPOCH   = 6343
BSTAR          = .61167E-4
MEAN_MOTION_DOT = .551E-5
MEAN_MOTION_DDOT = 0

CCSDS_OMM_VERS = 2.0
CREATION_DATE  = 
ORIGINATOR     = 

OBJECT_NAME    = COSMOS 1844
OBJECT_ID      = 1987-041A
CENTER_NAME    = EARTH
REF_FRAME      = TEME
TIME_SYSTEM    = UTC
MEAN_ELEMENT_THEORY = SGP/SGP4

EPOCH          = 2025-11-23T06:09:24.539328
MEAN_MOTION    = 14.14527882
ECCENTRICITY   = .0031001
INCLINATION    = 70.8996
RA_OF_ASC_NODE = 258.6624
ARG_OF_PERICENTER = 187.1936
MEAN_ANOMALY   = 172.8745

EPHEMERIS_TYPE = 0
CLASSIFICATION_TYPE = U
NORAD_CAT_ID   = 17973
ELEMENT_SET_NO = 999
REV_AT_EPOCH   = 98853
BSTAR          = .49987E-4
MEAN_MOTION_DOT = .48E-6
MEAN_MOTION_DDOT = 0

CCSDS_OMM_VERS = 2.0
CREATION_DATE  = 
ORIGINATOR     = 

OBJECT_NAME    = SL-14 R/B
OBJECT_ID      = 1987-055B
CENTER_NAME    = EARTH
REF_FRAME      = TEME
TIME_SYSTEM    = UTC
MEAN_ELEMENT_THEORY = SGP/SGP4

EPOCH          = 2025-11-23T10:58:13.122048
MEAN_MOTION    = 14.85490967
ECCENTRICITY   = .0020854
INCLINATION    = 82.4988
RA_OF_ASC_NODE = 89.1591
ARG_OF_PERICENTER = 9.0052
MEAN_ANOMALY   = 351.1534

EPHEMERIS_TYPE = 0
CLASSIFICATION_TYPE = U
NORAD_CAT_ID   = 18153
ELEMENT_SET_NO = 999
REV_AT_EPOCH   = 5416
BSTAR          = .65104E-4
MEAN_MOTION_DOT = .588E-5
MEAN_MOTION_DDOT = 0

CCSDS_OMM_VERS = 2.0
CREATION_DATE  = 
ORIGINATOR     = 

OBJECT_NAME    = COSMOS 1867
OBJECT_ID      = 1987-060A
CENTER_NAME    = EARTH
REF_FRAME      = TEME
TIME_SYSTEM    = UTC
MEAN_ELEMENT_THEORY = SGP/SGP4

EPOCH          = 2025-11-23T02:40:10.331616
MEAN_MOTION    = 14.31481623
ECCENTRICITY   = .0013628
INCLINATION    = 65.0101
RA_OF_ASC_NODE = 245.1686
ARG_OF_PERICENTER = 269.1499
MEAN_ANOMALY   = 90.8024

EPHEMERIS_TYPE = 0
CLASSIFICATION_TYPE = U
NORAD_CAT_ID   = 18187
ELEMENT_SET_NO = 999
REV_AT_EPOCH   = 468
BSTAR          = .36547E-4
MEAN_MOTION_DOT = -.3E-7
MEAN_MOTION_DDOT = 0

CCSDS_OMM_VERS = 2.0
CREATION_DATE  = 
ORIGINATOR     = 

OBJECT_NAME    = COSMOS 1892
OBJECT_ID      = 1987-088A
CENTER_NAME    = EARTH
REF_FRAME      = TEME
TIME_SYSTEM    = UTC
MEAN_ELEMENT_THEORY = SGP/SGP4

EPOCH          = 2025-11-23T01:23:31.522272
MEAN_MOTION    = 16.09875009
ECCENTRICITY   = .0005682
INCLINATION    = 82.4651
RA_OF_ASC_NODE = 65.9084
ARG_OF_PERICENTER = 269.9230
MEAN_ANOMALY   = 90.1402

EPHEMERIS_TYPE = 0
CLASSIFICATION_TYPE = U
NORAD_CAT_ID   = 18421
ELEMENT_SET_NO = 999
REV_AT_EPOCH   = 8816
BSTAR          = .67059E-3
MEAN_MOTION_DOT = .617164E-2
MEAN_MOTION_DDOT = .19844E-3

